{
    "links": {
        "self": "http://www.neowsapp.com/rest/v1/neo/54017039?api_key=iIulBulltgU6a56xZRHN4H3l9WmuAYTsLGpBGhQ2"
    },
    "id": "54017039",
    "neo_reference_id": "54017039",
    "name": "(2020 JH2)",
    "designation": "2020 JH2",
    "nasa_jpl_url": "http://ssd.jpl.nasa.gov/sbdb.cgi?sstr=54017039",
    "absolute_magnitude_h": 24.566,
    "estimated_diameter": {
        "kilometers": {
            "estimated_diameter_min": 0.0324604829,
            "estimated_diameter_max": 0.0725838464
        },
        "meters": {
            "estimated_diameter_min": 32.4604829198,
            "estimated_diameter_max": 72.5838463911
        },
        "miles": {
            "estimated_diameter_min": 0.0201700027,
            "estimated_diameter_max": 0.0451014972
        },
        "feet": {
            "estimated_diameter_min": 106.4976507826,
            "estimated_diameter_max": 238.1359865939
        }
    },
    "is_potentially_hazardous_asteroid": false,
    "close_approach_data": [
        {
            "close_approach_date": "2017-10-29",
            "close_approach_date_full": "2017-Oct-29 16:38",
            "epoch_date_close_approach": 1509295080000,
            "relative_velocity": {
                "kilometers_per_second": "29.6567689357",
                "kilometers_per_hour": "106764.3681685348",
                "miles_per_hour": "66339.2264322765"
            },
            "miss_distance": {
                "astronomical": "0.491700945",
                "lunar": "191.271667605",
                "kilometers": "73557414.04898715",
                "miles": "45706457.65343667"
            },
            "orbiting_body": "Earth"
        },
        {
            "close_approach_date": "2020-05-22",
            "close_approach_date_full": "2020-May-22 13:16",
            "epoch_date_close_approach": 1590153360000,
            "relative_velocity": {
                "kilometers_per_second": "15.0475685378",
                "kilometers_per_hour": "54171.2467361041",
                "miles_per_hour": "33659.9060622198"
            },
            "miss_distance": {
                "astronomical": "0.0275693157",
                "lunar": "10.7244638073",
                "kilometers": "4124310.906077559",
                "miles": "2562727.9617619542"
            },
            "orbiting_body": "Earth"
        },
        {
            "close_approach_date": "2020-06-30",
            "close_approach_date_full": "2020-Jun-30 20:45",
            "epoch_date_close_approach": 1593549900000,
            "relative_velocity": {
                "kilometers_per_second": "8.1042934379",
                "kilometers_per_hour": "29175.4563765081",
                "miles_per_hour": "18128.4939912808"
            },
            "miss_distance": {
                "astronomical": "0.0761318743",
                "lunar": "29.6152991027",
                "kilometers": "11389166.234387741",
                "miles": "7076899.7378471858"
            },
            "orbiting_body": "Venus"
        },
        {
            "close_approach_date": "2115-06-25",
            "close_approach_date_full": "2115-Jun-25 11:04",
            "epoch_date_close_approach": 4590903840000,
            "relative_velocity": {
                "kilometers_per_second": "12.0313870805",
                "kilometers_per_hour": "43312.9934897456",
                "miles_per_hour": "26913.0097603367"
            },
            "miss_distance": {
                "astronomical": "0.1770972767",
                "lunar": "68.8908406363",
                "kilometers": "26493375.377120629",
                "miles": "16462220.0960535202"
            },
            "orbiting_body": "Earth"
        }
    ],
    "orbital_data": {
        "orbit_id": "6",
        "orbit_determination_date": "2020-06-02 06:15:17",
        "first_observation_date": "2020-05-15",
        "last_observation_date": "2020-05-21",
        "data_arc_in_days": 6,
        "observations_used": 92,
        "orbit_uncertainty": "8",
        "minimum_orbit_intersection": ".0267835",
        "jupiter_tisserand_invariant": "3.608",
        "epoch_osculation": "2458987.5",
        "eccentricity": ".5993635630037643",
        "semi_major_axis": "1.984371526112937",
        "inclination": "4.116412551754554",
        "ascending_node_longitude": "82.40930858166352",
        "orbital_period": "1021.016844180033",
        "perihelion_distance": ".79501153789867",
        "perihelion_argument": "222.7327122651475",
        "aphelion_distance": "3.173731514327205",
        "perihelion_time": "2459034.997153586032",
        "mean_anomaly": "343.2529939261643",
        "mean_motion": ".3525896776846145",
        "equinox": "J2000",
        "orbit_class": {
            "orbit_class_type": "APO",
            "orbit_class_description": "Near-Earth asteroid orbits which cross the Earth’s orbit similar to that of 1862 Apollo",
            "orbit_class_range": "a (semi-major axis) > 1.0 AU; q (perihelion) < 1.017 AU"
        }
    },
    "is_sentry_object": false
}